     2.100          NAVIGATION                              RINEX VERSION / TYPE
fic2rin                                 06/30/2017 01:08:44 PGM / RUN BY / DATE
                                                            END OF HEADER
22 17  6 29 18  0  0.0 -.384910963476D-04 -.123918653117D-10  .000000000000D+00
     .880000000000D+02 -.552187500000D+02  .523200364824D-08  .202743609794D+01
    -.306218862534D-05  .749851379078D-02  .105500221252D-04  .515379459000D+04
     .410400000000D+06  .115483999252D-06 -.202402878325D+01 -.130385160446D-06
     .923579344295D+00  .151718750000D+03 -.170910127203D+01 -.826605860023D-08
    -.133576992589D-09  .100000000000D+01  .195500000000D+04  .000000000000D+00
     .240000000000D+01  .000000000000D+00 -.176951289177D-07  .880000000000D+02
     .403206000000D+06  .400000000000D+01
23 17  6 29 18  0  0.0 -.214332249016D-03 -.568434188608D-12  .000000000000D+00
     .330000000000D+02  .433437500000D+02  .494484882994D-08  .124745566000D+01
     .239722430706D-05  .118306647055D-01  .838004052639D-05  .515372415543D+04
     .410400000000D+06 -.137835741043D-06 -.938984736255D+00  .484287738800D-07
     .944047048697D+00  .211687500000D+03 -.244544003291D+01 -.835820529566D-08
     .125362364703D-09  .100000000000D+01  .195500000000D+04  .000000000000D+00
     .240000000000D+01  .000000000000D+00 -.204890966415D-07  .330000000000D+02
     .403206000000D+06  .400000000000D+01
24 17  6 29 18  0  0.0 -.368324108422D-04 -.454747350886D-12  .000000000000D+00
     .840000000000D+02  .250000000000D+01  .506163940903D-08  .671533707754D+00
     .242143869400D-07  .568733038381D-02  .599585473537D-05  .515368617249D+04
     .410400000000D+06  .111758708954D-07  .837849244927D-01  .614672899246D-07
     .945306220324D+00  .257781250000D+03  .482805515130D+00 -.845999524990D-08
    -.204651381694D-09  .100000000000D+01  .195500000000D+04  .000000000000D+00
     .340000000000D+01  .000000000000D+00  .279396772385D-08  .840000000000D+02
     .403206000000D+06  .400000000000D+01
26 17  6 29 18  0  0.0 -.482945237309D-03  .659383658785D-11  .000000000000D+00
     .270000000000D+02  .244687500000D+02  .450875923649D-08 -.191665433984D+01
     .100955367088D-05  .180476752575D-02  .969134271145D-05  .515373054886D+04
     .410400000000D+06  .502914190292D-07  .115093703280D+01 -.726431608200D-07
     .958646399128D+00  .192468750000D+03  .988420995245D-01 -.806605026908D-08
    -.625026034843D-10  .100000000000D+01  .195500000000D+04  .000000000000D+00
     .240000000000D+01  .000000000000D+00  .745058059692D-08  .270000000000D+02
     .403206000000D+06  .400000000000D+01
27 17  6 29 18  0  0.0  .284770503640D-03  .704858393874D-11  .000000000000D+00
     .162000000000D+03  .415312500000D+02  .442304138028D-08  .262658265589D+01
     .212341547012D-05  .487850571517D-02  .606663525105D-05  .515366704559D+04
     .410400000000D+06 -.745058059692D-07  .220704102579D+01 -.465661287308D-07
     .975088957580D+00  .270343750000D+03  .378912246210D+00 -.805926427213D-08
     .291797868838D-09  .100000000000D+01  .195500000000D+04  .000000000000D+00
     .240000000000D+01  .000000000000D+00  .139698386192D-08  .162000000000D+03
     .403206000000D+06  .400000000000D+01
28 17  6 29 18  0  0.0  .624979846179D-03  .318323145621D-11  .000000000000D+00
     .680000000000D+02  .171562500000D+02  .373801284610D-08 -.278808036934D+01
     .858679413795D-06  .197061059298D-01  .976398587227D-05  .515365684700D+04
     .410400000000D+06  .264495611191D-06  .124605908087D+01  .126659870148D-06
     .988227890058D+00  .198812500000D+03 -.156790604832D+01 -.738637910091D-08
     .475019786481D-10  .100000000000D+01  .195500000000D+04  .000000000000D+00
     .340000000000D+01  .000000000000D+00 -.111758708954D-07  .680000000000D+02
     .403206000000D+06  .400000000000D+01
29 17  6 29 18  0  0.0  .590369571000D-03 -.363797880709D-11  .000000000000D+00
     .450000000000D+02  .296250000000D+02  .435553856852D-08 -.212529446259D+01
     .167824327946D-05  .660622026771D-03  .528991222382D-05  .515360929871D+04
     .410400000000D+06  .856816768646D-07  .226940101908D+01  .745058059692D-08
     .981367670314D+00  .288437500000D+03  .562114994323D+00 -.812640992616D-08
     .209294432239D-09  .100000000000D+01  .195500000000D+04  .000000000000D+00
     .240000000000D+01  .000000000000D+00 -.977888703346D-08  .450000000000D+02
     .403206000000D+06  .400000000000D+01
30 17  6 29 18  0  0.0  .152227003127D-03 -.136424205266D-11  .000000000000D+00
     .180000000000D+02  .406250000000D+00  .498770775805D-08 -.194793083788D+00
     .689178705215D-07  .294925039634D-02  .581145286560D-05  .515365692711D+04
     .410400000000D+06  .968575477600D-07  .176203940287D+00  .130385160446D-07
     .947996705148D+00  .258343750000D+03  .313728300080D+01 -.839820696189D-08
    -.145720355552D-09  .100000000000D+01  .195500000000D+04  .000000000000D+00
     .240000000000D+01  .000000000000D+00  .372529029846D-08  .180000000000D+02
     .403206000000D+06  .400000000000D+01
31 17  6 29 18  0  0.0  .191579107195D-03 -.238742359215D-11  .000000000000D+00
     .630000000000D+02 -.781250000000D+00  .456733310490D-08 -.391268574570D+00
    -.335276126862D-07  .841632054653D-02  .626407563686D-05  .515372463036D+04
     .410400000000D+06  .745058059692D-07  .148851434728D+00 -.912696123123D-07
     .967016686801D+00  .255875000000D+03 -.252912917284D+00 -.823748598150D-08
    -.156077929844D-09  .100000000000D+01  .195500000000D+04  .000000000000D+00
     .240000000000D+01  .000000000000D+00 -.135041773319D-07  .630000000000D+02
     .403206000000D+06  .400000000000D+01
32 17  6 29 18  0  0.0 -.451812986284D-03 -.875388650456D-11  .000000000000D+00
     .920000000000D+02  .495000000000D+02  .454411785218D-08 -.305776763783D+01
     .263564288616D-05  .132665492129D-02  .780262053013D-05  .515373627090D+04
     .410400000000D+06  .558793544769D-07 -.937145236729D+00  .596046447754D-07
     .957668501297D+00  .228000000000D+03 -.254314692117D+01 -.806855037322D-08
     .335013954676D-09  .100000000000D+01  .195500000000D+04  .000000000000D+00
     .240000000000D+01  .000000000000D+00  .465661287308D-09  .920000000000D+02
     .403206000000D+06  .400000000000D+01
 1 17  6 29 17 59 44.0  .563738867640D-04  .341060513165D-12  .000000000000D+00
     .100000000000D+02 -.595312500000D+02  .469555273148D-08  .448303709900D+00
    -.295415520668D-05  .683236401528D-02  .502169132233D-05  .515368155098D+04
     .410384000000D+06 -.186264514923D-08 -.301896843028D+01  .987201929092D-07
     .968114437121D+00  .281781250000D+03  .570376641311D+00 -.835820529566D-08
    -.282511767749D-09  .100000000000D+01  .195500000000D+04  .000000000000D+00
     .240000000000D+01  .000000000000D+00  .558793544769D-08  .100000000000D+02
     .406326000000D+06  .400000000000D+01
27 17  6 29 17 59 44.0  .284770503640D-03  .704858393874D-11  .000000000000D+00
     .000000000000D+00  .415312500000D+02  .442268422255D-08  .262424980041D+01
     .212341547012D-05  .487850233912D-02  .606663525105D-05  .515366704369D+04
     .410384000000D+06 -.745058059692D-07  .220704117793D+01 -.465661287308D-07
     .975088953192D+00  .270343750000D+03  .378911356756D+00 -.805926427213D-08
     .292155026572D-09  .100000000000D+01  .195500000000D+04  .000000000000D+00
     .240000000000D+01  .000000000000D+00  .139698386192D-08  .000000000000D+00
     .407766000000D+06  .400000000000D+01
 1 17  6 29 19 59 44.0  .563762150705D-04  .341060513165D-12  .000000000000D+00
     .150000000000D+02 -.599687500000D+02  .472662545435D-08  .149832172083D+01
    -.295601785183D-05  .683302734978D-02  .581890344620D-05  .515368396759D+04
     .417584000000D+06 -.931322574615D-07 -.301902894389D+01  .188127160072D-06
     .968112583604D+00  .272781250000D+03  .570535700005D+00 -.833284709653D-08
    -.205008539429D-09  .100000000000D+01  .195500000000D+04  .000000000000D+00
     .240000000000D+01  .000000000000D+00  .558793544769D-08  .150000000000D+02
     .411006000000D+06  .400000000000D+01
27 17  6 29 19 59 44.0  .284821260720D-03  .704858393874D-11  .000000000000D+00
     .100000000000D+01  .370937500000D+02  .439125434194D-08 -.260881902390D+01
     .178627669811D-05  .487869454082D-02  .603683292866D-05  .515366667366D+04
     .417584000000D+06 -.260770320892D-07  .220698316299D+01 -.689178705215D-07
     .975091097830D+00  .272812500000D+03  .378978743152D+00 -.805747848346D-08
     .304655547269D-09  .100000000000D+01  .195500000000D+04  .000000000000D+00
     .240000000000D+01  .000000000000D+00  .139698386192D-08  .100000000000D+01
     .411006000000D+06  .400000000000D+01
 2 17  6 29 20  0  0.0  .387884210795D-03 -.818545231596D-11  .000000000000D+00
     .830000000000D+02 -.557187500000D+02  .508056876894D-08  .179974379910D+01
    -.328570604324D-05  .168284439715D-01  .487640500069D-05  .515381258392D+04
     .417600000000D+06 -.176951289177D-06 -.307309710288D+01 -.359490513802D-06
     .947051722974D+00  .281968750000D+03 -.196933008024D+01 -.841749347953D-08
    -.122147945095D-09  .100000000000D+01  .195500000000D+04  .000000000000D+00
     .240000000000D+01  .000000000000D+00 -.204890966415D-07  .830000000000D+02
     .411006000000D+06  .400000000000D+01
 3 17  6 29 20  0  0.0 -.913110561669D-04  .272848410532D-11  .000000000000D+00
     .910000000000D+02 -.339687500000D+02  .443304179684D-08  .823766232896D+00
    -.178441405296D-05  .774984364398D-03  .107120722532D-04  .515371548843D+04
     .417600000000D+06  .279396772385D-07 -.197684633389D+01  .111758708954D-07
     .959734264510D+00  .168093750000D+03  .120249000259D+00 -.797247494273D-08
    -.145363197818D-09  .100000000000D+01  .195500000000D+04  .000000000000D+00
     .340000000000D+01  .000000000000D+00  .232830643654D-08  .910000000000D+02
     .411006000000D+06  .400000000000D+01
